ONEWEB-0156             
1 48052U 21025L   26015.45826092  .00000317  00000+0  83197-3 0  9990
2 48052  87.9007 350.5622 0001781  87.5331 272.6002 13.13471301233527
ONEWEB-0161             
1 48053U 21025M   26015.35669470  .00000100  00000+0  23863-3 0  9999
2 48053  87.9000 350.5957 0001749  90.2103 269.9226 13.13470672233442
ONEWEB-0158             
1 48054U 21025N   26015.46842496  .00000142  00000+0  35381-3 0  9997
2 48054  87.9007 350.5600 0001743  72.5197 287.6122 13.13469272233586
ONEWEB-0157             
1 48055U 21025P   26015.41763488 -.00000286  00000+0 -81929-3 0  9996
2 48055  87.9005 350.5756 0001614  96.5390 263.5923 13.13470512233519
ONEWEB-0162             
1 48056U 21025Q   26015.46997612  .00000107  00000+0  25757-3 0  9997
2 48056  87.9011 350.5684 0001887  86.5906 273.5439 13.13469641233492
ONEWEB-0155             
1 48057U 21025R   26015.47687348 -.00000079  00000+0 -25127-3 0  9992
2 48057  87.9001 350.5705 0001573  85.1359 274.9950 13.13470266233639
ONEWEB-0149             
1 48058U 21025S   26015.34653751 -.00000169  00000+0 -49861-3 0  9991
2 48058  87.9001 350.5901 0001973  87.5455 272.5900 13.13470221233422
ONEWEB-0148             
1 48059U 21025T   26015.46165599  .00000301  00000+0  79045-3 0  9996
2 48059  87.8999 350.5850 0002205  95.7426 264.3955 13.13469246233568
ONEWEB-0160             
1 48060U 21025U   26015.47857847 -.00000152  00000+0 -45212-3 0  9998
2 48060  87.8999 350.5788 0002132  63.0972 297.0375 13.13469620233513
ONEWEB-0163             
1 48061U 21025V   26015.46334193  .00000275  00000+0  71711-3 0  9999
2 48061  87.9005 350.5708 0001619  92.5506 267.5808 13.13470549233632
ONEWEB-0159             
1 48062U 21025W   26015.37870652  .00000380  00000+0  10054-2 0  9994
2 48062  87.9008 350.5720 0001773  91.4204 268.7128 13.13469797233545
ONEWEB-0164             
1 48063U 21025X   26015.36006852  .00000219  00000+0  56587-3 0  9990
2 48063  87.9008 350.5823 0001755  80.6187 279.5141 13.13472099233522
ONEWEB-0167             
1 48064U 21025Y   26015.46419089  .00000219  00000+0  56514-3 0  9992
2 48064  87.9000 350.5861 0001048  89.4189 270.7060 13.13470276233529
ONEWEB-0166             
1 48065U 21025Z   26015.41086309 -.00000260  00000+0 -74799-3 0  9996
2 48065  87.9006 350.5554 0001893  88.6538 271.4808 13.13470038233593
ONEWEB-0151             
1 48066U 21025AA  26015.41255790 -.00000229  00000+0 -66320-3 0  9995
2 48066  87.9006 350.5819 0001640  83.0294 277.1021 13.13470703233539
ONEWEB-0170             
1 48067U 21025AB  26015.34482485 -.00000236  00000+0 -68086-3 0  9990
2 48067  87.8998 350.5986 0001616  68.8099 291.3202 13.13468791233488
ONEWEB-0168             
1 48068U 21025AC  26015.48196355 -.00000206  00000+0 -59915-3 0  9992
2 48068  87.9010 350.5588 0001693  89.5449 270.5874 13.13469583233515
ONEWEB-0173             
1 48069U 21025AD  26015.47349868 -.00000010  00000+0 -63250-4 0  9992
2 48069  87.9009 350.5681 0001469  94.2631 265.8666 13.13469673233757
ONEWEB-0171             
1 48070U 21025AE  26015.35838516  .00000121  00000+0  29753-3 0  9994
2 48070  87.8995 350.6087 0001658  82.8419 277.2899 13.13471151233557
ONEWEB-0172             
1 48071U 21025AF  26015.41424876 -.00000285  00000+0 -81534-3 0  9990
2 48071  87.9000 350.5835 0001597  84.8442 275.2869 13.13469888234455
ONEWEB-0174             
1 48072U 21025AG  26015.47180465  .00000077  00000+0  17466-3 0  9990
2 48072  87.8998 350.5738 0001831  87.8482 272.2857 13.13470149233782
ONEWEB-0175             
1 48073U 21025AH  26015.34992407 -.00000093  00000+0 -28884-3 0  9990
2 48073  87.9004 350.5696 0001502  76.3731 283.7566 13.13470238233424
ONEWEB-0177             
1 48074U 21025AJ  26015.36177612  .00000220  00000+0  56820-3 0  9997
2 48074  87.9008 350.5874 0001766  91.1172 269.0159 13.13470735233611
ONEWEB-0178             
1 48075U 21025AK  26015.38054215  .00000370  00000+0  97892-3 0  9993
2 48075  87.8990 350.6207 0001490  85.9069 274.2231 13.13469296233666
ONEWEB-0108             
1 48076U 21025AL  26015.41593815 -.00000279  00000+0 -80005-3 0  9990
2 48076  87.9007 350.5656 0002011  82.2568 277.8789 13.13470991233591
ONEWEB-0169             
1 48077U 21025AM  26015.37193280  .00000366  00000+0  96838-3 0  9994
2 48077  87.9000 350.5939 0001995  82.8949 277.2407 13.13469388232248
ONEWEB-0176             
1 48210U 21031A   26015.33448333 -.00000118  00000+0 -35169-3 0  9995
2 48210  87.9021 320.1612 0001667  79.0425 281.0893 13.14503947228231
ONEWEB-0184             
1 48211U 21031B   26015.38364076  .00000148  00000+0  36503-3 0  9996
2 48211  87.9037 320.1361 0000995  57.3226 302.8000 13.14503312228217
ONEWEB-0179             
1 48212U 21031C   26015.35428493  .00000093  00000+0  21602-3 0  9991
2 48212  87.9029 320.1480 0001793  86.8409 273.2926 13.14505052228253
ONEWEB-0180             
1 48213U 21031D   26015.38681544  .00000040  00000+0  72656-4 0  9991
2 48213  87.9037 320.1407 0001494  86.4233 273.7068 13.14503036228141
ONEWEB-0218             
1 48214U 21031E   26015.33287396 -.00000213  00000+0 -60999-3 0  9994
2 48214  87.9035 320.1520 0000869  76.0640 284.0587 13.14500756228291
ONEWEB-0209             
1 48215U 21031F   26015.39791509 -.00000125  00000+0 -37223-3 0  9993
2 48215  87.9019 320.1714 0001739  85.9894 274.1435 13.14503259228301
ONEWEB-0198             
1 48216U 21031G   26015.38219681  .00000207  00000+0  52439-3 0  9994
2 48216  87.9025 320.1719 0001354  87.4859 272.6426 13.14502640228413
ONEWEB-0189             
1 48217U 21031H   26015.31862394 -.00000060  00000+0 -19748-3 0  9998
2 48217  87.9028 320.1598 0001427  85.1064 275.0229 13.14502521228142
ONEWEB-0196             
1 48218U 21031J   26015.37252849  .00000215  00000+0  54593-3 0  9990
2 48218  87.9022 320.1613 0001638  81.2610 278.8705 13.14501624228157
ONEWEB-0183             
1 48219U 21031K   26015.34716706  .00000001  00000+0 -32236-4 0  9990
2 48219  87.9013 320.1685 0001947  82.2133 277.9218 13.14503366228245
ONEWEB-0185             
1 48220U 21031L   26015.37332371  .00000243  00000+0  62231-3 0  9991
2 48220  87.9028 320.1449 0001908  91.1083 269.0266 13.14501101228173
ONEWEB-0187             
1 48221U 21031M   26015.58173183  .00000079  00000+0  17985-3 0  9992
2 48221  87.9015 320.1407 0001688  87.8401 272.2922 13.14503198228213
ONEWEB-0192             
1 48222U 21031N   26015.39949666 -.00000138  00000+0 -40684-3 0  9999
2 48222  87.9017 320.1661 0001642  78.4002 281.7312 13.14503568228108
ONEWEB-0219             
1 48223U 21031P   26015.37888446  .00000212  00000+0  53724-3 0  9996
2 48223  87.9024 320.1510 0001747  86.8295 273.3035 13.14503145228305
ONEWEB-0202             
1 48224U 21031Q   26015.28373109  .00000195  00000+0  49148-3 0  9997
2 48224  87.9019 320.1804 0001004  85.9198 274.2047 13.14503461228274
ONEWEB-0204             
1 48225U 21031R   26015.39393340 -.00000071  00000+0 -22641-3 0  9993
2 48225  87.9025 320.1502 0002050  83.0667 277.0696 13.14501076228180
ONEWEB-0205             
1 48226U 21031S   26015.36937391  .00000261  00000+0  66915-3 0  9992
2 48226  87.9024 320.1481 0001738  85.0615 275.0713 13.14502813228192
ONEWEB-0206             
1 48227U 21031T   26015.34240458 -.00000276  00000+0 -77872-3 0  9994
2 48227  87.9035 320.1473 0001778  70.4942 289.6380 13.14502900228144
ONEWEB-0182             
1 48228U 21031U   26015.33765139 -.00000129  00000+0 -38297-3 0  9997
2 48228  87.9016 320.1700 0001952  81.1334 279.0017 13.14503725228354
ONEWEB-0186             
1 48229U 21031V   26015.34876137  .00000006  00000+0 -17378-4 0  9991
2 48229  87.9029 320.1499 0001743  82.6139 277.5189 13.14502795228305
ONEWEB-0181             
1 48230U 21031W   26015.40267350 -.00000211  00000+0 -60363-3 0  9991
2 48230  87.9015 320.1882 0001624  83.6244 276.5071 13.14502881228163
ONEWEB-0188             
1 48231U 21031X   26015.36460535  .00000305  00000+0  78790-3 0  9992
2 48231  87.9015 320.1931 0001760  79.8100 280.3228 13.14503796228060
ONEWEB-0220             
1 48232U 21031Y   26015.40424812 -.00000190  00000+0 -54794-3 0  9998
2 48232  87.9031 320.1377 0001814  86.6659 273.4679 13.14503469228338
ONEWEB-0165             
1 48233U 21031Z   26015.35668766  .00000176  00000+0  43927-3 0  9999
2 48233  87.9015 320.1691 0001424  82.8939 277.2353 13.14503060228288
ONEWEB-0199             
1 48234U 21031AA  26015.34082855 -.00000082  00000+0 -25504-3 0  9997
2 48234  87.9026 320.1506 0001814  74.5245 285.6085 13.14503889228180
ONEWEB-0203             
1 48235U 21031AB  26015.33130765 -.00000156  00000+0 -45410-3 0  9991
2 48235  87.9023 320.1520 0001544  73.4538 286.6761 13.14503411228191
ONEWEB-0197             
1 48236U 21031AC  26015.38191602  .00000151  00000+0  37162-3 0  9992
2 48236  87.9028 320.1411 0002046  82.4046 277.7316 13.14503087228116
ONEWEB-0194             
1 48237U 21031AD  26015.36144584  .00000219  00000+0  55631-3 0  9994
2 48237  87.9026 320.1626 0001769  71.2116 288.9206 13.14502534228284
ONEWEB-0193             
1 48238U 21031AE  26015.37730015  .00000241  00000+0  61477-3 0  9996
2 48238  87.9023 320.1530 0001847  64.4205 295.7116 13.14502584228232
ONEWEB-0191             
1 48239U 21031AF  26015.38840061  .00000031  00000+0  48339-4 0  9991
2 48239  87.9032 320.1431 0001816  77.6210 282.5123 13.14503590228095
ONEWEB-0195             
1 48240U 21031AG  26015.36539336  .00000276  00000+0  71021-3 0  9995
2 48240  87.9026 320.1456 0001378  86.3345 273.7942 13.14504307228072
ONEWEB-0201             
1 48241U 21031AH  26015.35364305  .00000136  00000+0  33119-3 0  9998
2 48241  87.9016 320.1816 0001853  88.2928 271.8414 13.14504772228303
ONEWEB-0207             
1 48242U 21031AJ  26015.33366947 -.00000351  00000+0 -98061-3 0  9999
2 48242  87.9027 320.1524 0001882  85.5369 274.5976 13.14501869228210
